start=new Date('2021-12-18T00:00:00.000Z').valueOf();
sats=[{"PERIAPSIS":"545.443","MEAN_ELEMENT_THEORY":"SGP4","REV_AT_EPOCH":"4001","NORAD_CAT_ID":"48093","CENTER_NAME":"EARTH","MEAN_ANOMALY":"293.1219","GP_ID":"191902198","OBJECT_TYPE":"PAYLOAD","SEMIMAJOR_AXIS":"6925.362","TLE_LINE2":"2 48093  53.0559 247.7755 0002577  67.0042 293.1219 15.06395497 40011","FILE":"3243045","OBJECT_NAME":"STARLINK-2404","CLASSIFICATION_TYPE":"U","OBJECT_ID":"2021-027B","ARG_OF_PERICENTER":"67.0042","RCS_SIZE":"LARGE","RA_OF_ASC_NODE":"247.7755","EPHEMERIS_TYPE":"0","BSTAR":"0.00000829850000","PERIOD":"95.592","MEAN_MOTION_DDOT":"0.0000000000000","MEAN_MOTION_DOT":"-0.00000158","SITE":"AFETR","DECAY_DATE":null,"ELEMENT_SET_NO":"999","REF_FRAME":"TEME","ECCENTRICITY":"0.00025770","INCLINATION":"53.0559","EPOCH":"2021-12-17T19:59:25.647936","TLE_LINE1":"1 48093U 21027B   21351.83293574 -.00000158  00000-0  82985-5 0  9991","COUNTRY_CODE":"US","APOAPSIS":"549.012","TIME_SYSTEM":"UTC","LAUNCH_DATE":"2021-04-07","MEAN_MOTION":"15.06395497"},{"ECCENTRICITY":"0.00023700","REF_FRAME":"TEME","DECAY_DATE":null,"ELEMENT_SET_NO":"999","SITE":"AFETR","MEAN_MOTION_DDOT":"0.0000000000000","MEAN_MOTION_DOT":"-0.00000518","PERIOD":"95.592","BSTAR":"-0.00001582300000","EPHEMERIS_TYPE":"0","MEAN_MOTION":"15.06399440","LAUNCH_DATE":"2021-04-07","TIME_SYSTEM":"UTC","APOAPSIS":"548.857","COUNTRY_CODE":"US","INCLINATION":"53.0545","TLE_LINE1":"1 48094U 21027C   21351.86981625 -.00000518  00000-0 -15823-4 0  9993","EPOCH":"2021-12-17T20:52:32.124000","MEAN_ANOMALY":"291.0063","CENTER_NAME":"EARTH","REV_AT_EPOCH":"3988","NORAD_CAT_ID":"48094","MEAN_ELEMENT_THEORY":"SGP4","PERIAPSIS":"545.574","RA_OF_ASC_NODE":"257.6110","OBJECT_ID":"2021-027C","ARG_OF_PERICENTER":"69.1180","RCS_SIZE":"LARGE","CLASSIFICATION_TYPE":"U","OBJECT_NAME":"STARLINK-2412","SEMIMAJOR_AXIS":"6925.350","TLE_LINE2":"2 48094  53.0545 257.6110 0002370  69.1180 291.0063 15.06399440 39888","FILE":"3243045","OBJECT_TYPE":"PAYLOAD","GP_ID":"191903449"},{"PERIAPSIS":"545.341","MEAN_ELEMENT_THEORY":"SGP4","MEAN_ANOMALY":"303.1961","REV_AT_EPOCH":"3988","NORAD_CAT_ID":"48095","CENTER_NAME":"EARTH","SEMIMAJOR_AXIS":"6925.370","TLE_LINE2":"2 48095  53.0549 257.8826 0002735  56.9290 303.1961 15.06392903 39889","FILE":"3243045","OBJECT_NAME":"STARLINK-2414","GP_ID":"191903700","OBJECT_TYPE":"PAYLOAD","RA_OF_ASC_NODE":"257.8826","CLASSIFICATION_TYPE":"U","OBJECT_ID":"2021-027D","ARG_OF_PERICENTER":"56.9290","RCS_SIZE":"LARGE","MEAN_MOTION_DOT":"-0.00001237","MEAN_MOTION_DDOT":"0.0000000000000","BSTAR":"-0.00006416200000","EPHEMERIS_TYPE":"0","PERIOD":"95.593","REF_FRAME":"TEME","ECCENTRICITY":"0.00027350","SITE":"AFETR","ELEMENT_SET_NO":"999","DECAY_DATE":null,"APOAPSIS":"549.129","INCLINATION":"53.0549","TLE_LINE1":"1 48095U 21027D   21351.81084499 -.00001237  00000-0 -64162-4 0  9991","EPOCH":"2021-12-17T19:27:37.007136","COUNTRY_CODE":"US","MEAN_MOTION":"15.06392903","TIME_SYSTEM":"UTC","LAUNCH_DATE":"2021-04-07"},{"INCLINATION":"53.0555","EPOCH":"2021-12-17T18:50:27.484512","TLE_LINE1":"1 48096U 21027E   21351.78504033  .00002808  00000-0  20745-3 0  9990","COUNTRY_CODE":"US","APOAPSIS":"548.827","TIME_SYSTEM":"UTC","LAUNCH_DATE":"2021-04-07","MEAN_MOTION":"15.06380707","BSTAR":"0.00020745000000","EPHEMERIS_TYPE":"0","PERIOD":"95.593","MEAN_MOTION_DDOT":"0.0000000000000","MEAN_MOTION_DOT":"0.00002808","SITE":"AFETR","ELEMENT_SET_NO":"999","DECAY_DATE":null,"REF_FRAME":"TEME","ECCENTRICITY":"0.00022450","GP_ID":"191902448","OBJECT_TYPE":"PAYLOAD","TLE_LINE2":"2 48096  53.0555 257.9979 0002245  65.1350 294.9873 15.06380707 39868","SEMIMAJOR_AXIS":"6925.408","FILE":"3243045","OBJECT_NAME":"STARLINK-2417","CLASSIFICATION_TYPE":"U","OBJECT_ID":"2021-027E","ARG_OF_PERICENTER":"65.1350","RCS_SIZE":"LARGE","RA_OF_ASC_NODE":"257.9979","PERIAPSIS":"545.718","MEAN_ELEMENT_THEORY":"SGP4","REV_AT_EPOCH":"3986","NORAD_CAT_ID":"48096","CENTER_NAME":"EARTH","MEAN_ANOMALY":"294.9873"},{"RA_OF_ASC_NODE":"237.7796","CLASSIFICATION_TYPE":"U","OBJECT_ID":"2021-027F","ARG_OF_PERICENTER":"69.7915","RCS_SIZE":"LARGE","FILE":"3243045","TLE_LINE2":"2 48097  53.0549 237.7796 0002973  69.7915 290.3394 15.06400564 40156","SEMIMAJOR_AXIS":"6925.347","OBJECT_NAME":"STARLINK-2418","GP_ID":"191902698","OBJECT_TYPE":"PAYLOAD","MEAN_ANOMALY":"290.3394","REV_AT_EPOCH":"4015","NORAD_CAT_ID":"48097","CENTER_NAME":"EARTH","PERIAPSIS":"545.153","MEAN_ELEMENT_THEORY":"SGP4","MEAN_MOTION":"15.06400564","TIME_SYSTEM":"UTC","LAUNCH_DATE":"2021-04-07","APOAPSIS":"549.271","INCLINATION":"53.0549","EPOCH":"2021-12-17T19:56:48.373152","TLE_LINE1":"1 48097U 21027F   21351.83111543  .00000416  00000-0  46878-4 0  9996","COUNTRY_CODE":"US","REF_FRAME":"TEME","ECCENTRICITY":"0.00029730","SITE":"AFETR","DECAY_DATE":null,"ELEMENT_SET_NO":"999","MEAN_MOTION_DOT":"0.00000416","MEAN_MOTION_DDOT":"0.0000000000000","EPHEMERIS_TYPE":"0","BSTAR":"0.00004687800000","PERIOD":"95.592"},{"REF_FRAME":"TEME","ECCENTRICITY":"0.00025770","SITE":"AFETR","ELEMENT_SET_NO":"999","DECAY_DATE":null,"MEAN_MOTION_DDOT":"0.0000000000000","MEAN_MOTION_DOT":"-0.00001289","BSTAR":"-0.00006763100000","EPHEMERIS_TYPE":"0","PERIOD":"95.592","MEAN_MOTION":"15.06395763","TIME_SYSTEM":"UTC","LAUNCH_DATE":"2021-04-07","APOAPSIS":"549.011","TLE_LINE1":"1 48098U 21027G   21351.87442555 -.00001289  00000-0 -67631-4 0  9992","EPOCH":"2021-12-17T20:59:10.367520","INCLINATION":"53.0562","COUNTRY_CODE":"US","MEAN_ANOMALY":"293.1759","NORAD_CAT_ID":"48098","REV_AT_EPOCH":"4001","CENTER_NAME":"EARTH","PERIAPSIS":"545.442","MEAN_ELEMENT_THEORY":"SGP4","RA_OF_ASC_NODE":"247.5932","CLASSIFICATION_TYPE":"U","RCS_SIZE":"LARGE","ARG_OF_PERICENTER":"66.9501","OBJECT_ID":"2021-027G","TLE_LINE2":"2 48098  53.0562 247.5932 0002577  66.9501 293.1759 15.06395763 40018","SEMIMAJOR_AXIS":"6925.362","FILE":"3243045","OBJECT_NAME":"STARLINK-2421","GP_ID":"191902950","OBJECT_TYPE":"PAYLOAD"},{"CENTER_NAME":"EARTH","NORAD_CAT_ID":"48099","REV_AT_EPOCH":"3987","MEAN_ANOMALY":"294.7517","MEAN_ELEMENT_THEORY":"SGP4","PERIAPSIS":"545.495","ARG_OF_PERICENTER":"65.3731","RCS_SIZE":"LARGE","OBJECT_ID":"2021-027H","CLASSIFICATION_TYPE":"U","RA_OF_ASC_NODE":"257.6332","OBJECT_TYPE":"PAYLOAD","GP_ID":"191903201","OBJECT_NAME":"STARLINK-2428","TLE_LINE2":"2 48099  53.0556 257.6332 0002489  65.3731 294.7517 15.06398409 39879","SEMIMAJOR_AXIS":"6925.353","FILE":"3243045","DECAY_DATE":null,"ELEMENT_SET_NO":"999","SITE":"AFETR","ECCENTRICITY":"0.00024890","REF_FRAME":"TEME","PERIOD":"95.592","EPHEMERIS_TYPE":"0","BSTAR":"-0.00000604990000","MEAN_MOTION_DDOT":"0.0000000000000","MEAN_MOTION_DOT":"-0.00000372","LAUNCH_DATE":"2021-04-07","TIME_SYSTEM":"UTC","MEAN_MOTION":"15.06398409","COUNTRY_CODE":"US","TLE_LINE1":"1 48099U 21027H   21351.86244336 -.00000372  00000-0 -60499-5 0  9997","EPOCH":"2021-12-17T20:41:55.106304","INCLINATION":"53.0556","APOAPSIS":"548.942"},{"PERIOD":"95.592","EPHEMERIS_TYPE":"0","BSTAR":"0.00008496500000","MEAN_MOTION_DDOT":"0.0000000000000","MEAN_MOTION_DOT":"0.00000984","ELEMENT_SET_NO":"999","DECAY_DATE":null,"SITE":"AFETR","ECCENTRICITY":"0.00025740","REF_FRAME":"TEME","COUNTRY_CODE":"US","INCLINATION":"53.0540","TLE_LINE1":"1 48100U 21027J   21351.89009185  .00000984  00000-0  84965-4 0  9994","EPOCH":"2021-12-17T21:21:43.935840","APOAPSIS":"549.011","LAUNCH_DATE":"2021-04-07","TIME_SYSTEM":"UTC","MEAN_MOTION":"15.06395232","MEAN_ELEMENT_THEORY":"SGP4","PERIAPSIS":"545.446","CENTER_NAME":"EARTH","REV_AT_EPOCH":"4016","NORAD_CAT_ID":"48100","MEAN_ANOMALY":"292.0877","OBJECT_TYPE":"PAYLOAD","GP_ID":"191901949","OBJECT_NAME":"STARLINK-2430","TLE_LINE2":"2 48100  53.0540 237.5216 0002574  68.0386 292.0877 15.06395232 40169","FILE":"3243045","SEMIMAJOR_AXIS":"6925.363","OBJECT_ID":"2021-027J","ARG_OF_PERICENTER":"68.0386","RCS_SIZE":"LARGE","CLASSIFICATION_TYPE":"U","RA_OF_ASC_NODE":"237.5216"},{"REV_AT_EPOCH":"4002","NORAD_CAT_ID":"48101","CENTER_NAME":"EARTH","MEAN_ANOMALY":"296.0171","PERIAPSIS":"545.248","MEAN_ELEMENT_THEORY":"SGP4","CLASSIFICATION_TYPE":"U","OBJECT_ID":"2021-027K","ARG_OF_PERICENTER":"64.1110","RCS_SIZE":"LARGE","RA_OF_ASC_NODE":"247.5969","GP_ID":"191902199","OBJECT_TYPE":"PAYLOAD","TLE_LINE2":"2 48101  53.0542 247.5969 0002844  64.1110 296.0171 15.06398834 40027","FILE":"3243045","SEMIMAJOR_AXIS":"6925.352","OBJECT_NAME":"STARLINK-2436","SITE":"AFETR","ELEMENT_SET_NO":"999","DECAY_DATE":null,"REF_FRAME":"TEME","ECCENTRICITY":"0.00028440","BSTAR":"0.00001935900000","EPHEMERIS_TYPE":"0","PERIOD":"95.592","MEAN_MOTION_DDOT":"0.0000000000000","MEAN_MOTION_DOT":"0.00000006","TIME_SYSTEM":"UTC","LAUNCH_DATE":"2021-04-07","MEAN_MOTION":"15.06398834","INCLINATION":"53.0542","TLE_LINE1":"1 48101U 21027K   21351.87347654  .00000006  00000-0  19359-4 0  9999","EPOCH":"2021-12-17T20:57:48.373056","COUNTRY_CODE":"US","APOAPSIS":"549.187"},{"MEAN_MOTION_DDOT":"0.0000000000000","MEAN_MOTION_DOT":"-0.00000125","PERIOD":"95.592","EPHEMERIS_TYPE":"0","BSTAR":"0.00001055700000","ECCENTRICITY":"0.00025520","REF_FRAME":"TEME","DECAY_DATE":null,"ELEMENT_SET_NO":"999","SITE":"AFETR","APOAPSIS":"548.985","COUNTRY_CODE":"US","EPOCH":"2021-12-17T20:23:20.622336","TLE_LINE1":"1 48102U 21027L   21351.84954424 -.00000125  00000-0  10557-4 0  9990","INCLINATION":"53.0528","MEAN_MOTION":"15.06398766","LAUNCH_DATE":"2021-04-07","TIME_SYSTEM":"UTC","MEAN_ELEMENT_THEORY":"SGP4","PERIAPSIS":"545.450","MEAN_ANOMALY":"289.7107","CENTER_NAME":"EARTH","NORAD_CAT_ID":"48102","REV_AT_EPOCH":"4015","OBJECT_NAME":"STARLINK-2437","TLE_LINE2":"2 48102  53.0528 237.6887 0002552  70.4158 289.7107 15.06398766 40155","FILE":"3243045","SEMIMAJOR_AXIS":"6925.352","OBJECT_TYPE":"PAYLOAD","GP_ID":"191903450","RA_OF_ASC_NODE":"237.6887","RCS_SIZE":"LARGE","ARG_OF_PERICENTER":"70.4158","OBJECT_ID":"2021-027L","CLASSIFICATION_TYPE":"U"}];
